OPTICUBE 04             
1 41851U 16067D   18256.30661020 -.00000130  00000-0 -60301-5 0  9990
2 41851  97.9220 345.5516 0008029 226.7242 133.3310 14.96699283100274
AEROCUBE 8D             
1 41852U 16067E   18256.82126404 -.00000139  00000-0 -69126-5 0  9993
2 41852  97.9241 345.9082 0008534 224.4195 135.6342 14.96548429100335
AEROCUBE 8C             
1 41853U 16067F   18256.50322494 -.00000122  00000-0 -54215-5 0  9991
2 41853  97.9234 345.5431 0009147 227.7897 132.2548 14.96507295100289
PROMETHEUS 2-1          
1 41854U 16067G   18256.50277129 -.00000004  00000-0  50013-5 0  9996
2 41854  97.9240 345.5748 0009504 227.4814 132.5604 14.96636892100283
PROMETHEUS 2-3          
1 41855U 16067H   18256.83979827  .00000178  00000-0  20976-4 0  9992
2 41855  97.9241 345.9226 0009714 226.5819 133.4594 14.96635608100336
ITF-2                   
1 41932U 98067KU  18256.38099165  .00056307  00000-0  25844-3 0  9999
2 41932  51.6289 244.2792 0002459 127.1282 232.9945 15.83086682 94706
WASEDA-SAT3             
1 41933U 98067KV  18256.84488964  .00293990  47931-4  53324-3 0  9993
2 41933  51.6281 227.5767 0003407  99.4377 260.7018 16.00972651 94963
AOBA-VELOX 3            
1 41935U 98067KX  18256.38730864  .00112823  15914-4  34348-3 0  9999
2 41935  51.6313 235.9661 0003001  99.1666 260.9680 15.91871457 94918
INS-1B                  
1 41954U 17008G   18256.61729652  .00001325  00000-0  58938-4 0  9997
2 41954  97.4381 319.8122 0010575  50.4911 309.7259 15.23225382 87464
BGUSAT                  
1 41999U 17008BD  18256.42936913  .00002295  00000-0  94972-4 0  9990
2 41999  97.4426 320.9588 0009931  67.0143 293.2141 15.24934614 86874
DIDO-2                  
1 42000U 17008BE  18256.61527224  .00001017  00000-0  45731-4 0  9996
2 42000  97.4397 320.2835 0010146  66.9883 293.2422 15.23363023 86862
PEASSS                  
1 42015U 17008BV  18256.74274151  .00001207  00000-0  52432-4 0  9991
2 42015  97.4396 320.9751 0008131  73.6028 286.6103 15.24204798 87405
AL-FARABI 1             
1 42016U 17008BW  18256.11928451  .00001429  00000-0  60720-4 0  9997
2 42016  97.4407 320.6220 0008009  75.6255 284.5871 15.24665154 87445
NAYIF-1 (EO-88)         
1 42017U 17008BX  18256.11211184  .00001416  00000-0  60174-4 0  9995
2 42017  97.4404 320.6224 0007986  75.7351 284.4773 15.24690340 87465
HAVELSAT                
1 42700U 98067LH  18256.61227726  .00043778  00000-0  27345-3 0  9991
2 42700  51.6289 260.9414 0000790 253.2733 106.8180 15.76409690 75949
CXBN-2                  
1 42704U 98067LM  18256.40557404  .00041036  00000-0  26225-3 0  9992
2 42704  51.6328 263.3425 0002190  87.1369 272.9881 15.75916340 75814
ICECUBE                 
1 42705U 98067LN  18256.87339680  .00286084  44854-4  58990-3 0  9995
2 42705  51.6456 243.9770 0001701 101.2132 258.9069 15.98746130 76172
PHOENIX                 
1 42706U 98067LP  18256.46993992  .00025112  00000-0  18572-3 0  9999
2 42706  51.6334 265.2864 0001561  84.6838 275.4339 15.72787970 75789
X-CUBESAT               
1 42707U 98067LQ  18256.48564355  .00051256  00000-0  30376-3 0  9993
2 42707  51.6310 260.7502 0001973  84.5812 275.5414 15.77530339 75832
QBEE50-LTU-OC           
1 42708U 98067LR  18256.61860631  .00042268  00000-0  26728-3 0  9994
2 42708  51.6307 261.7426 0001826  63.2597 296.8590 15.76145242 75796
ALTAIR PATHFINDER       
1 42711U 98067LS  18256.60385175  .00017679  00000-0  16965-3 0  9992
2 42711  51.6343 275.2329 0003256 132.4396 227.6875 15.66708992 75320
SHARC                   
1 42712U 98067LT  18256.63453262  .00030773  00000-0  27288-3 0  9999
2 42712  51.6353 276.2553 0001853 100.7603 259.3602 15.68295418 75553
ZA-AEROSAT              
1 42713U 98067LU  18256.57768253  .00029395  00000-0  23028-3 0  9998
2 42713  51.6327 268.2476 0002293 101.8855 258.2400 15.71323598 75414
LINK                    
1 42714U 98067LV  18256.45588577  .00608698  19158-3  81734-3 0  9999
2 42714  51.6169 244.3865 0003962  78.9907 281.1551 16.05911476 75825
CSUNSAT 1               
1 42715U 98067LW  18256.48806495  .00032481  00000-0  24327-3 0  9994
2 42715  51.6327 267.6684 0003233 115.9080 244.2251 15.72336467 75410
SPACECUBE               
1 42717U 98067LY  18256.46297469  .00041581  00000-0  26512-3 0  9998
2 42717  51.6274 262.9003 0000160  19.9609 340.1397 15.75963779 74840
HOOPOE                  
1 42718U 98067LZ  18256.61144326  .00069209  00000-0  35070-3 0  9995
2 42718  51.6274 257.0977 0001477  75.2220 284.8945 15.80875501 74936
NJUST-1                 
1 42722U 98067MB  18256.63370552  .00024233  00000-0  20051-3 0  9995
2 42722  51.6339 270.1588 0003121 195.6931 164.3970 15.70123452 74469
UNSW-ECO                
1 42723U 98067MC  18256.48449568  .00076614  00000-0  35603-3 0  9992
2 42723  51.6369 257.0950 0001016 112.6671 247.4440 15.82703027 74607
LILACSAT-1              
1 42725U 98067ME  18256.56947040  .00039069  00000-0  27340-3 0  9993
2 42725  51.6335 265.9528 0001677 186.3160 173.7818 15.73843194 74414
NSIGHT-1                
1 42726U 98067MF  18256.65634552  .00011002  00000-0  12457-3 0  9995
2 42726  51.6375 280.9254 0004049 198.7336 161.3510 15.62979084 74238
SNUSAT-1                
1 42727U 98067MG  18256.51909630  .00035969  00000-0  25242-3 0  9997
2 42727  51.6315 266.2910 0004062 148.7424 211.3817 15.73810723 74374
I-INSPIRE II            
1 42731U 98067ML  18256.43548861  .00073122  00000-0  32652-3 0  9994
2 42731  51.6328 255.9049 0003839 101.9599 258.1834 15.83561192 74390
POLYITAN-2-SAU          
1 42732U 98067MM  18256.63144913  .00052620  00000-0  31559-3 0  9992
2 42732  51.6317 261.0334 0004087 124.3694 235.7693 15.77243093 74344
SNUSAT-1B               
1 42733U 98067MN  18256.44152030  .00039963  00000-0  26698-3 0  9994
2 42733  51.6313 265.0535 0003840 133.8540 226.2777 15.74903582 74272
EXALTA-1                
1 42734U 98067MP  18256.86097555  .00110616  00000-0  44483-3 0  9998
2 42734  51.6249 252.6280 0002312 122.0427 238.0801 15.85598303 74426
BEEAGLESAT              
1 42736U 98067MR  18256.53461022  .00033675  00000-0  24749-3 0  9990
2 42736  51.6327 267.1870 0002868 188.8615 171.2333 15.72765233 74316
UCLSAT                  
1 42765U 17036A   18256.83625333  .00001347  00000-0  61819-4 0  9990
2 42765  97.3925 315.2251 0013254 121.9694 238.2833 15.22053190 68198
LITUANICASAT-2          
1 42768U 17036D   18256.72063418  .00002284  00000-0  10363-3 0  9999
2 42768  97.3941 314.6771 0017305 114.3626 245.9419 15.21696276 68025
AALTO-1                 
1 42775U 17036L   18256.39740557  .00000785  00000-0  38549-4 0  9997
2 42775  97.3917 314.1237 0015767 113.4815 246.8079 15.20882975 67908
URSA MAIOR              
1 42776U 17036M   18256.37905242  .00000849  00000-0  41337-4 0  9990
2 42776  97.3924 314.1759 0015608 113.6878 246.5997 15.20975281 67900
COMPASS 2               
1 42777U 17036N   18256.38107242  .00001571  00000-0  71697-4 0  9991
2 42777  97.3949 314.7181 0014475 116.2711 244.0014 15.21995443 67927
DIAMOND RED             
1 42783U 17036U   18256.39855144  .00000996  00000-0  47072-4 0  9990
2 42783  97.3927 314.5984 0013844 123.6075 236.6484 15.21628700 67920
PEGASUS                 
1 42784U 17036V   18256.22749997  .00001095  00000-0  51102-4 0  9991
2 42784  97.3928 314.5304 0013739 124.0870 236.1672 15.21851196 67908
DIAMOND GREEN           
1 42785U 17036W   18256.72611345  .00001054  00000-0  49614-4 0  9992
2 42785  97.3927 314.9361 0013748 123.0779 237.1779 15.21630682 67962
DIAMOND BLUE            
1 42786U 17036X   18256.39647695  .00001001  00000-0  47297-4 0  9990
2 42786  97.3928 314.6120 0013561 124.3070 235.9452 15.21630424 67918
NUDTSAT                 
1 42787U 17036Y   18256.83311698  .00002049  00000-0  91226-4 0  9995
2 42787  97.3932 315.4184 0013366 121.6861 238.5681 15.22514880 67858
SUCHAI                  
1 42788U 17036Z   18256.10258517  .00001338  00000-0  61256-4 0  9996
2 42788  97.3930 314.5451 0013347 124.1617 236.0887 15.22151710 67962
SKCUBE                  
1 42789U 17036AA  18256.30179047  .00001237  00000-0  56962-4 0  9995
2 42789  97.3928 314.7273 0013201 123.4813 236.7687 15.22100614 67910
VZLUSAT-1               
1 42790U 17036AB  18256.16415301  .00001626  00000-0  73000-4 0  9991
2 42790  97.3934 314.7668 0012848 123.8942 236.3518 15.22526180 67908
ROBUSTA-1B              
1 42792U 17036AD  18256.72206622  .00001378  00000-0  62832-4 0  9994
2 42792  97.3926 315.2212 0012786 122.8948 237.3521 15.22255890 67999
CICERO 6                
1 42793U 17036AE  18256.20132894  .00001024  00000-0  47790-4 0  9991
2 42793  97.3917 314.6714 0011871 125.2714 234.9635 15.22039517 67986
D-SAT                   
1 42794U 17036AF  18256.83716085  .00000185  00000-0  21764-4 0  9991
2 42794  97.5826 308.1019 0126571 347.9175  11.9015 14.90926464 66931
TOKI                    
1 42820U 98067MU  18256.46746847  .00029883  00000-0  23027-3 0  9991
2 42820  51.6326 270.5042 0002936 100.1916 259.9413 15.71707215 67720
MAZAALAI (NUMSAT-1)     
1 42822U 98067MW  18256.51957981  .00031819  00000-0  24886-3 0  9998
2 42822  51.6327 270.8621 0002717 101.8969 258.2334 15.71318359 67701
BRAC ONNESHA            
1 42823U 98067MX  18256.50827290  .00034687  00000-0  26865-3 0  9992
2 42823  51.6338 270.8098 0003712 138.9811 221.1467 15.71503588 67701
NIGERIAEDUSAT-1         
1 42824U 98067MY  18256.48275023  .00030594  00000-0  24073-3 0  9993
2 42824  51.6342 271.4112 0003665 138.9882 221.1392 15.71192315 67682
CORVUS BC2              
1 42846U 17042X   18256.27331407  .00000326  00000-0  37578-4 0  9992
2 42846  97.5875 155.9256 0008116 262.6520  97.3777 14.91854474 63500
CORVUS BC1              
1 42847U 17042Y   18256.51342036  .00000034  00000-0  86742-5 0  9994
2 42847  97.5874 156.2192 0007693 261.0255  99.0094 14.91953590 63533
